COSMOS 2550             
1 48865U 21056A   25323.31648856  .00000348  00000+0  16396-4 0  9994
2 48865  67.1439  14.7840 0007876 266.7679  93.2574 15.33823925246539
CZ-2C R/B               
1 52794U 22058K   25322.85347732  .00027128  00000+0  51343-3 0  9995
2 52794  50.1884 165.2125 0048102  99.6193 261.0213 15.46863093192933
CZ-2C R/B               
1 54039U 22132E   25322.97125769  .00028620  00000+0  45503-3 0  9998
2 54039  97.2946 318.7519 0023331 135.4248 224.8887 15.52958508173146
GSLV R/B                
1 54149U 22138AN  25323.17727384  .00002470  00000+0  21708-3 0  9996
2 54149  87.3853 203.3610 0021102 186.3898 173.7067 14.95960179167403
XRISM                   
1 57800U 23137A   25322.97389645  .00006639  00000+0  39262-3 0  9999
2 57800  31.0030 278.9495 0007831   2.9010 357.1673 15.10014734121039
ACS3                    
1 59588U 24077B   25323.12501683  .00036891  00000+0  32511-1 0  9995
2 59588  97.3002 283.9852 0064323  19.5406 340.8199 13.84057616 78873
