CCSDS_OMM_VERS = 2.0
CREATION_DATE  = 
ORIGINATOR     = 

OBJECT_NAME    = COSMOS 2550
OBJECT_ID      = 2021-056A
CENTER_NAME    = EARTH
REF_FRAME      = TEME
TIME_SYSTEM    = UTC
MEAN_ELEMENT_THEORY = SGP/SGP4

EPOCH          = 2025-11-19T07:35:44.611584
MEAN_MOTION    = 15.33823925
ECCENTRICITY   = .0007876
INCLINATION    = 67.1439
RA_OF_ASC_NODE = 14.7840
ARG_OF_PERICENTER = 266.7679
MEAN_ANOMALY   = 93.2574

EPHEMERIS_TYPE = 0
CLASSIFICATION_TYPE = U
NORAD_CAT_ID   = 48865
ELEMENT_SET_NO = 999
REV_AT_EPOCH   = 24653
BSTAR          = .16396326E-4
MEAN_MOTION_DOT = .348E-5
MEAN_MOTION_DDOT = 0

CCSDS_OMM_VERS = 2.0
CREATION_DATE  = 
ORIGINATOR     = 

OBJECT_NAME    = CZ-2C R/B
OBJECT_ID      = 2022-058K
CENTER_NAME    = EARTH
REF_FRAME      = TEME
TIME_SYSTEM    = UTC
MEAN_ELEMENT_THEORY = SGP/SGP4

EPOCH          = 2025-11-18T20:29:00.440448
MEAN_MOTION    = 15.46863093
ECCENTRICITY   = .00481029
INCLINATION    = 50.1884
RA_OF_ASC_NODE = 165.2125
ARG_OF_PERICENTER = 99.6193
MEAN_ANOMALY   = 261.0213

EPHEMERIS_TYPE = 0
CLASSIFICATION_TYPE = U
NORAD_CAT_ID   = 52794
ELEMENT_SET_NO = 999
REV_AT_EPOCH   = 19293
BSTAR          = .51343236E-3
MEAN_MOTION_DOT = .27128E-3
MEAN_MOTION_DDOT = 0

CCSDS_OMM_VERS = 2.0
CREATION_DATE  = 
ORIGINATOR     = 

OBJECT_NAME    = CZ-2C R/B
OBJECT_ID      = 2022-132E
CENTER_NAME    = EARTH
REF_FRAME      = TEME
TIME_SYSTEM    = UTC
MEAN_ELEMENT_THEORY = SGP/SGP4

EPOCH          = 2025-11-18T23:18:36.664416
MEAN_MOTION    = 15.52958508
ECCENTRICITY   = .00233311
INCLINATION    = 97.2946
RA_OF_ASC_NODE = 318.7519
ARG_OF_PERICENTER = 135.4248
MEAN_ANOMALY   = 224.8887

EPHEMERIS_TYPE = 0
CLASSIFICATION_TYPE = U
NORAD_CAT_ID   = 54039
ELEMENT_SET_NO = 999
REV_AT_EPOCH   = 17314
BSTAR          = .45502564E-3
MEAN_MOTION_DOT = .2862E-3
MEAN_MOTION_DDOT = 0

CCSDS_OMM_VERS = 2.0
CREATION_DATE  = 
ORIGINATOR     = 

OBJECT_NAME    = GSLV R/B
OBJECT_ID      = 2022-138AN
CENTER_NAME    = EARTH
REF_FRAME      = TEME
TIME_SYSTEM    = UTC
MEAN_ELEMENT_THEORY = SGP/SGP4

EPOCH          = 2025-11-19T04:15:16.459776
MEAN_MOTION    = 14.95960179
ECCENTRICITY   = .00211026
INCLINATION    = 87.3853
RA_OF_ASC_NODE = 203.3610
ARG_OF_PERICENTER = 186.3898
MEAN_ANOMALY   = 173.7067

EPHEMERIS_TYPE = 0
CLASSIFICATION_TYPE = U
NORAD_CAT_ID   = 54149
ELEMENT_SET_NO = 999
REV_AT_EPOCH   = 16740
BSTAR          = .21708442E-3
MEAN_MOTION_DOT = .247E-4
MEAN_MOTION_DDOT = 0

CCSDS_OMM_VERS = 2.0
CREATION_DATE  = 
ORIGINATOR     = 

OBJECT_NAME    = XRISM
OBJECT_ID      = 2023-137A
CENTER_NAME    = EARTH
REF_FRAME      = TEME
TIME_SYSTEM    = UTC
MEAN_ELEMENT_THEORY = SGP/SGP4

EPOCH          = 2025-11-18T23:22:24.653280
MEAN_MOTION    = 15.10014734
ECCENTRICITY   = .00078318
INCLINATION    = 31.0030
RA_OF_ASC_NODE = 278.9495
ARG_OF_PERICENTER = 2.9010
MEAN_ANOMALY   = 357.1673

EPHEMERIS_TYPE = 0
CLASSIFICATION_TYPE = U
NORAD_CAT_ID   = 57800
ELEMENT_SET_NO = 999
REV_AT_EPOCH   = 12103
BSTAR          = .39262068E-3
MEAN_MOTION_DOT = .6639E-4
MEAN_MOTION_DDOT = 0

CCSDS_OMM_VERS = 2.0
CREATION_DATE  = 
ORIGINATOR     = 

OBJECT_NAME    = ACS3
OBJECT_ID      = 2024-077B
CENTER_NAME    = EARTH
REF_FRAME      = TEME
TIME_SYSTEM    = UTC
MEAN_ELEMENT_THEORY = SGP/SGP4

EPOCH          = 2025-11-19T03:00:01.454112
MEAN_MOTION    = 13.84057616
ECCENTRICITY   = .00643235
INCLINATION    = 97.3002
RA_OF_ASC_NODE = 283.9852
ARG_OF_PERICENTER = 19.5406
MEAN_ANOMALY   = 340.8199

EPHEMERIS_TYPE = 0
CLASSIFICATION_TYPE = U
NORAD_CAT_ID   = 59588
ELEMENT_SET_NO = 999
REV_AT_EPOCH   = 7887
BSTAR          = .32511298E-1
MEAN_MOTION_DOT = .36891E-3
MEAN_MOTION_DDOT = 0

